{
  "type": "FeatureCollection",
  "features": [
    {
      "type": "Feature",
      "properties": {
        "norad_id": 2807,
        "name": "OPS 7218 (TRANSIT 16)",
        "group": "nnss",
        "lat": 65.18620996100807,
        "lon": -5.722145758641842,
        "alt_km": 1047.2523686836885,
        "timestamp": "2025-12-26T03:50:12.361761+00:00",
        "meta_object_name": "OPS 7218 (TRANSIT 16)",
        "meta_object_id": "1967-048A",
        "meta_epoch": "2025-12-25T13:52:36.167232",
        "meta_mean_motion": 13.50724852,
        "meta_eccentricity": 0.0022141,
        "meta_inclination": 89.6734,
        "meta_ra_of_asc_node": 353.5902,
        "meta_arg_of_pericenter": 79.9207,
        "meta_mean_anomaly": 38.6228,
        "meta_ephemeris_type": 0,
        "meta_classification_type": "U",
        "meta_norad_cat_id": 2807,
        "meta_element_set_no": 999,
        "meta_rev_at_epoch": 88449,
        "meta_bstar": 0.00014159,
        "meta_mean_motion_dot": 1.02e-06,
        "meta_mean_motion_ddot": 0,
        "tle_line1": "1 02807U 67048A   25359.57819638  .00000102  00000+0  14159-3 0  9998",
        "tle_line2": "2 02807  89.6734 353.5902 0022141  79.9207  38.6228 13.50724852884496"
      },
      "geometry": {
        "type": "Point",
        "coordinates": [
          -5.722145758641842,
          65.18620996100807
        ]
      }
    },
    {
      "type": "Feature",
      "properties": {
        "norad_id": 2965,
        "name": "OPS 4947 (TRANSIT 17)",
        "group": "nnss",
        "lat": -82.07229509042826,
        "lon": -151.18037358673837,
        "alt_km": 1053.3712846262233,
        "timestamp": "2025-12-26T03:50:12.361784+00:00",
        "meta_object_name": "OPS 4947 (TRANSIT 17)",
        "meta_object_id": "1967-092A",
        "meta_epoch": "2025-12-25T14:41:33.017280",
        "meta_mean_motion": 13.53456966,
        "meta_eccentricity": 0.0047171,
        "meta_inclination": 89.2485,
        "meta_ra_of_asc_node": 23.4532,
        "meta_arg_of_pericenter": 196.3512,
        "meta_mean_anomaly": 278.3032,
        "meta_ephemeris_type": 0,
        "meta_classification_type": "U",
        "meta_norad_cat_id": 2965,
        "meta_element_set_no": 999,
        "meta_rev_at_epoch": 87271,
        "meta_bstar": 0.00018696,
        "meta_mean_motion_dot": 1.38e-06,
        "meta_mean_motion_ddot": 0,
        "tle_line1": "1 02965U 67092A   25359.61218770  .00000138  00000+0  18696-3 0  9996",
        "tle_line2": "2 02965  89.2485  23.4532 0047171 196.3512 278.3032 13.53456966872714"
      },
      "geometry": {
        "type": "Point",
        "coordinates": [
          -151.18037358673837,
          -82.07229509042826
        ]
      }
    },
    {
      "type": "Feature",
      "properties": {
        "norad_id": 3133,
        "name": "OPS 7034 (TRANSIT 18)",
        "group": "nnss",
        "lat": -40.57337476153183,
        "lon": -86.29837592278257,
        "alt_km": 1128.2489353145047,
        "timestamp": "2025-12-26T03:50:12.361798+00:00",
        "meta_object_name": "OPS 7034 (TRANSIT 18)",
        "meta_object_id": "1968-012A",
        "meta_epoch": "2025-12-25T19:27:50.342976",
        "meta_mean_motion": 13.51568761,
        "meta_eccentricity": 0.007503,
        "meta_inclination": 90.0285,
        "meta_ra_of_asc_node": 273.6762,
        "meta_arg_of_pericenter": 131.6104,
        "meta_mean_anomaly": 291.5955,
        "meta_ephemeris_type": 0,
        "meta_classification_type": "U",
        "meta_norad_cat_id": 3133,
        "meta_element_set_no": 999,
        "meta_rev_at_epoch": 57095,
        "meta_bstar": 0.00020971,
        "meta_mean_motion_dot": 1.49e-06,
        "meta_mean_motion_ddot": 0,
        "tle_line1": "1 03133U 68012A   25359.81099934  .00000149  00000+0  20971-3 0  9999",
        "tle_line2": "2 03133  90.0285 273.6762 0075030 131.6104 291.5955 13.51568761570955"
      },
      "geometry": {
        "type": "Point",
        "coordinates": [
          -86.29837592278257,
          -40.57337476153183
        ]
      }
    },
    {
      "type": "Feature",
      "properties": {
        "norad_id": 4507,
        "name": "NNSS 19 (TRANSIT 19)",
        "group": "nnss",
        "lat": -80.18207633264691,
        "lon": -125.42992102034927,
        "alt_km": 960.2888753698317,
        "timestamp": "2025-12-26T03:50:12.361810+00:00",
        "meta_object_name": "NNSS 19 (TRANSIT 19)",
        "meta_object_id": "1970-067A",
        "meta_epoch": "2025-12-25T17:33:54.763776",
        "meta_mean_motion": 13.51317732,
        "meta_eccentricity": 0.0170218,
        "meta_inclination": 90.0047,
        "meta_ra_of_asc_node": 234.5427,
        "meta_arg_of_pericenter": 255.346,
        "meta_mean_anomaly": 102.8768,
        "meta_ephemeris_type": 0,
        "meta_classification_type": "U",
        "meta_norad_cat_id": 4507,
        "meta_element_set_no": 999,
        "meta_rev_at_epoch": 72397,
        "meta_bstar": 0.00012964,
        "meta_mean_motion_dot": 1e-06,
        "meta_mean_motion_ddot": 0,
        "tle_line1": "1 04507U 70067A   25359.73188384  .00000100  00000+0  12964-3 0  9997",
        "tle_line2": "2 04507  90.0047 234.5427 0170218 255.3460 102.8768 13.51317732723972"
      },
      "geometry": {
        "type": "Point",
        "coordinates": [
          -125.42992102034927,
          -80.18207633264691
        ]
      }
    },
    {
      "type": "Feature",
      "properties": {
        "norad_id": 6909,
        "name": "NNSS 20 (TRANSIT 20)",
        "group": "nnss",
        "lat": -61.75573513966592,
        "lon": 75.12157580616801,
        "alt_km": 1107.197745592056,
        "timestamp": "2025-12-26T03:50:12.361821+00:00",
        "meta_object_name": "NNSS 20 (TRANSIT 20)",
        "meta_object_id": "1973-081A",
        "meta_epoch": "2025-12-25T17:54:30.671712",
        "meta_mean_motion": 13.71441138,
        "meta_eccentricity": 0.0156091,
        "meta_inclination": 89.8559,
        "meta_ra_of_asc_node": 254.8594,
        "meta_arg_of_pericenter": 39.7617,
        "meta_mean_anomaly": 321.4863,
        "meta_ephemeris_type": 0,
        "meta_classification_type": "U",
        "meta_norad_cat_id": 6909,
        "meta_element_set_no": 999,
        "meta_rev_at_epoch": 80539,
        "meta_bstar": 0.00027867,
        "meta_mean_motion_dot": 2.84e-06,
        "meta_mean_motion_ddot": 0,
        "tle_line1": "1 06909U 73081A   25359.74618833  .00000284  00000+0  27867-3 0  9993",
        "tle_line2": "2 06909  89.8559 254.8594 0156091  39.7617 321.4863 13.71441138805397"
      },
      "geometry": {
        "type": "Point",
        "coordinates": [
          75.12157580616801,
          -61.75573513966592
        ]
      }
    },
    {
      "type": "Feature",
      "properties": {
        "norad_id": 10457,
        "name": "TRANSAT",
        "group": "nnss",
        "lat": 10.207069407993169,
        "lon": -101.94196285222161,
        "alt_km": 1058.8501790960727,
        "timestamp": "2025-12-26T03:50:12.361831+00:00",
        "meta_object_name": "TRANSAT",
        "meta_object_id": "1977-106A",
        "meta_epoch": "2025-12-25T18:39:52.188768",
        "meta_mean_motion": 13.48945596,
        "meta_eccentricity": 0.0026569,
        "meta_inclination": 89.6475,
        "meta_ra_of_asc_node": 78.1351,
        "meta_arg_of_pericenter": 152.5856,
        "meta_mean_anomaly": 322.1693,
        "meta_ephemeris_type": 0,
        "meta_classification_type": "U",
        "meta_norad_cat_id": 10457,
        "meta_element_set_no": 999,
        "meta_rev_at_epoch": 36919,
        "meta_bstar": 0.00011911,
        "meta_mean_motion_dot": 8.5e-07,
        "meta_mean_motion_ddot": 0,
        "tle_line1": "1 10457U 77106A   25359.77768737  .00000085  00000+0  11911-3 0  9992",
        "tle_line2": "2 10457  89.6475  78.1351 0026569 152.5856 322.1693 13.48945596369191"
      },
      "geometry": {
        "type": "Point",
        "coordinates": [
          -101.94196285222161,
          10.207069407993169
        ]
      }
    },
    {
      "type": "Feature",
      "properties": {
        "norad_id": 12458,
        "name": "NOVA 1",
        "group": "nnss",
        "lat": -87.22052006806861,
        "lon": 88.15408875415615,
        "alt_km": 1190.7076466407689,
        "timestamp": "2025-12-26T03:50:12.361842+00:00",
        "meta_object_name": "NOVA 1",
        "meta_object_id": "1981-044A",
        "meta_epoch": "2025-12-25T19:47:26.126880",
        "meta_mean_motion": 13.23279888,
        "meta_eccentricity": 0.0015707,
        "meta_inclination": 89.8525,
        "meta_ra_of_asc_node": 91.2002,
        "meta_arg_of_pericenter": 71.8269,
        "meta_mean_anomaly": 44.8452,
        "meta_ephemeris_type": 0,
        "meta_classification_type": "U",
        "meta_norad_cat_id": 12458,
        "meta_element_set_no": 999,
        "meta_rev_at_epoch": 15359,
        "meta_bstar": 0.00013431,
        "meta_mean_motion_dot": 6.6e-07,
        "meta_mean_motion_ddot": 0,
        "tle_line1": "1 12458U 81044A   25359.82460795  .00000066  00000+0  13431-3 0  9998",
        "tle_line2": "2 12458  89.8525  91.2002 0015707  71.8269  44.8452 13.23279888153597"
      },
      "geometry": {
        "type": "Point",
        "coordinates": [
          88.15408875415615,
          -87.22052006806861
        ]
      }
    }
  ]
}